     3.03           N: GNSS NAV DATA    M: Mixed            RINEX VERSION / TYPE
CONVBIN demo5 b34g                      20241113 150204 UTC PGM / RUN BY / DATE 
log: BRUX00BEL0.rtcm3                                       COMMENT             
format: RTCM 3                                              COMMENT             
format: RTCM 3                                              COMMENT             
log: BRUX00BEL0.rtcm3                                       COMMENT             
                                                            END OF HEADER       
C24 2024 04 19 08 00 00  .941447797231D-03 -.589039927945D-11  .000000000000D+00
      .100000000000D+01  .161562500000D+02  .412910056504D-08  .689721836152D+00
      .971369445324D-06  .611975789070D-03  .104946084321D-04  .528264293480D+04
      .460800000000D+06 -.102445483208D-07  .237626754611D+00  .977888703346D-08
      .945418433455D+00  .139843750000D+03  .816471680088D+00 -.677563937543D-08
     -.571095216980D-09  .000000000000D+00  .954000000000D+03  .000000000000D+00
      .200000000000D+01  .000000000000D+00  .370000000000D-08  .370000000000D-08
      .529923000000D+07  .100000000000D+01
C25 2024 04 19 08 00 00  .372824957594D-03  .956035250965D-11  .000000000000D+00
      .100000000000D+01  .177812500000D+02  .407124101210D-08 -.344927453784D-01
      .994186848402D-06  .498077017255D-03  .104210339487D-04  .528262386322D+04
      .460800000000D+06 -.200234353542D-07  .213914624140D+00 -.153668224812D-07
      .946937021419D+00  .139281250000D+03  .744872697886D+00 -.676742474755D-08
     -.578238371663D-09  .000000000000D+00  .954000000000D+03  .000000000000D+00
      .200000000000D+01  .000000000000D+00  .400000000000D-09  .400000000000D-09
      .529923100000D+07  .100000000000D+01
C05 2024 04 19 08 00 00 -.873863347806D-03  .341389139180D-10  .000000000000D+00
      .100000000000D+01  .512187500000D+03  .101236359758D-07  .869961221331D+00
      .167046673596D-04  .961011857726D-03 -.119437463582D-04  .649338490677D+04
      .460800000000D+06  .115483999252D-06 -.126359827783D+01 -.203028321266D-06
      .103093892446D+00  .360500000000D+03 -.268072351899D+01 -.914573809956D-08
      .460019161645D-09  .000000000000D+00  .954000000000D+03  .000000000000D+00
      .200000000000D+01  .000000000000D+00  .100000000000D-09 -.940000000000D-08
      .529924000000D+07  .000000000000D+00
E31 2024 04 19 07 50 00 -.206211116165D-04 -.994759830064D-12  .000000000000D+00
      .500000000000D+01  .160875000000D+03  .277547275244D-08  .192384724471D+01
      .740773975849D-05  .368822365999D-04  .116433948278D-04  .544061731148D+04
      .460200000000D+06 -.651925802231D-07  .832530646792D+00 -.186264514923D-07
      .966663213609D+00  .925937500000D+02 -.237070986181D+00 -.527736268048D-08
     -.298226708054D-09  .517000000000D+03  .231000000000D+04  .000000000000D+00
      .312000000000D+01  .000000000000D+00  .325962901115D-08  .419095158577D-08
      .529926500000D+07  .000000000000D+00
E33 2024 04 19 07 50 00  .103092170320D-04  .497379915032D-12  .000000000000D+00
      .500000000000D+01 -.155656250000D+03  .247188867837D-08  .823732335621D+00
     -.715814530849D-05  .708189327270D-04  .231899321079D-05  .544061306381D+04
      .460200000000D+06 -.428408384323D-07  .292464939989D+01  .108033418655D-06
      .100040385817D+01  .310468750000D+03 -.409626768656D+00 -.555630287089D-08
     -.201436962087D-09  .517000000000D+03  .231000000000D+04  .000000000000D+00
      .312000000000D+01  .000000000000D+00 -.279396772385D-08 -.279396772385D-08
      .529926600000D+07  .000000000000D+00
E09 2024 04 19 07 50 00 -.404247664846D-03 -.137987399285D-10  .000000000000D+00
      .500000000000D+01 -.912500000000D+01  .346407286397D-08 -.265704729730D+01
     -.387430191040D-06  .395721988752D-03  .630319118500D-05  .544060104942D+04
      .460200000000D+06  .372529029846D-08 -.126655470068D+01 -.372529029846D-07
      .966322736981D+00  .210718750000D+03 -.613632829208D+00 -.552201572841D-08
      .442518432669D-09  .517000000000D+03  .231000000000D+04  .000000000000D+00
      .312000000000D+01  .000000000000D+00  .116415321827D-08  .162981450558D-08
      .529926900000D+07  .000000000000D+00
E12 2024 04 19 07 50 00 -.990528555121D-03 -.169961822394D-10  .000000000000D+00
      .500000000000D+01 -.137000000000D+03  .252367654983D-08 -.691382292059D+00
     -.628270208836D-05  .497419852763D-03  .199675559998D-05  .544061399078D+04
      .460200000000D+06  .577419996262D-07  .292589913716D+01  .745058059692D-07
      .997292468411D+00  .315781250000D+03  .280884054325D+00 -.562702010226D-08
     -.181436128972D-09  .517000000000D+03  .231000000000D+04  .000000000000D+00
      .312000000000D+01  .000000000000D+00 -.977888703346D-08 -.908039510250D-08
      .529927000000D+07  .000000000000D+00
E24 2024 04 19 07 50 00 -.703025434632D-03 -.211031192521D-10  .000000000000D+00
      .500000000000D+01  .143562500000D+03  .281440294547D-08 -.100939925513D+00
      .683590769768D-05  .672493246384D-03  .116322189569D-04  .544062820244D+04
      .460200000000D+06 -.670552253723D-07  .835696297648D+00  .316649675369D-07
      .964522825481D+00  .898125000000D+02  .101619511526D+01 -.533057918288D-08
     -.275725770799D-09  .517000000000D+03  .231000000000D+04  .000000000000D+00
      .312000000000D+01  .000000000000D+00 -.442378222942D-08 -.488944351673D-08
      .529927100000D+07  .000000000000D+00
E25 2024 04 19 07 50 00  .324682332575D-05  .383693077310D-12  .000000000000D+00
      .500000000000D+01  .131375000000D+03  .285869050451D-08 -.460542715156D+00
      .620819628239D-05  .729233724996D-04  .109057873487D-04  .544061447716D+04
      .460200000000D+06  .167638063431D-07  .832594181324D+00  .391155481339D-07
      .966693184411D+00  .104093750000D+03  .582403165030D+00 -.534307970357D-08
     -.241438628317D-09  .517000000000D+03  .231000000000D+04  .000000000000D+00
      .312000000000D+01  .000000000000D+00  .325962901115D-08  .395812094212D-08
      .529927200000D+07  .000000000000D+00
E26 2024 04 19 07 50 00  .423491816036D-03  .109565689854D-10  .000000000000D+00
      .500000000000D+01 -.159937500000D+03  .255367779950D-08  .162898385682D+01
     -.736676156521D-05  .165371107869D-03  .301189720631D-05  .544061234093D+04
      .460200000000D+06 -.633299350739D-07  .292490271147D+01 -.130385160446D-07
      .993705362560D+00  .292093750000D+03 -.475336259183D+00 -.561701968570D-08
     -.264296723305D-09  .517000000000D+03  .231000000000D+04  .000000000000D+00
      .312000000000D+01  .000000000000D+00 -.372529029846D-08 -.395812094212D-08
      .529927300000D+07  .000000000000D+00
E24 2024 04 19 07 50 00 -.703025609255D-03 -.211031192521D-10  .000000000000D+00
      .500000000000D+01  .143562500000D+03  .281440294547D-08 -.100939925513D+00
      .683590769768D-05  .672493246384D-03  .116322189569D-04  .544062820244D+04
      .460200000000D+06 -.670552253723D-07  .835696297648D+00  .316649675369D-07
      .964522825481D+00  .898125000000D+02  .101619511526D+01 -.533057918288D-08
     -.275725770799D-09  .258000000000D+03  .231000000000D+04  .000000000000D+00
      .312000000000D+01  .000000000000D+00 -.442378222942D-08  .000000000000D+00
      .529934000000D+07  .000000000000D+00
E25 2024 04 19 07 50 00  .324525171891D-05  .397903932026D-12  .000000000000D+00
      .500000000000D+01  .131375000000D+03  .285869050451D-08 -.460542715156D+00
      .620819628239D-05  .729233724996D-04  .109057873487D-04  .544061447716D+04
      .460200000000D+06  .167638063431D-07  .832594181324D+00  .391155481339D-07
      .966693184411D+00  .104093750000D+03  .582403165030D+00 -.534307970357D-08
     -.241438628317D-09  .258000000000D+03  .231000000000D+04  .000000000000D+00
      .312000000000D+01  .000000000000D+00  .325962901115D-08  .000000000000D+00
      .529934100000D+07  .000000000000D+00
E26 2024 04 19 07 50 00  .423491408583D-03  .109707798401D-10  .000000000000D+00
      .500000000000D+01 -.159937500000D+03  .255367779950D-08  .162898385682D+01
     -.736676156521D-05  .165371107869D-03  .301189720631D-05  .544061234093D+04
      .460200000000D+06 -.633299350739D-07  .292490271147D+01 -.130385160446D-07
      .993705362560D+00  .292093750000D+03 -.475336259183D+00 -.561701968570D-08
     -.264296723305D-09  .258000000000D+03  .231000000000D+04  .000000000000D+00
      .312000000000D+01  .000000000000D+00 -.372529029846D-08  .000000000000D+00
      .529934200000D+07  .000000000000D+00
E31 2024 04 19 07 50 00 -.206227996387D-04 -.100897068478D-11  .000000000000D+00
      .500000000000D+01  .160875000000D+03  .277547275244D-08  .192384724471D+01
      .740773975849D-05  .368822365999D-04  .116433948278D-04  .544061731148D+04
      .460200000000D+06 -.651925802231D-07  .832530646792D+00 -.186264514923D-07
      .966663213609D+00  .925937500000D+02 -.237070986181D+00 -.527736268048D-08
     -.298226708054D-09  .258000000000D+03  .231000000000D+04  .000000000000D+00
      .312000000000D+01  .000000000000D+00  .325962901115D-08  .000000000000D+00
      .529934300000D+07  .000000000000D+00
E33 2024 04 19 07 50 00  .103086931631D-04  .511590769747D-12  .000000000000D+00
      .500000000000D+01 -.155656250000D+03  .247188867837D-08  .823732335621D+00
     -.715814530849D-05  .708189327270D-04  .231899321079D-05  .544061306381D+04
      .460200000000D+06 -.428408384323D-07  .292464939989D+01  .108033418655D-06
      .100040385817D+01  .310468750000D+03 -.409626768656D+00 -.555630287089D-08
     -.201436962087D-09  .258000000000D+03  .231000000000D+04  .000000000000D+00
      .312000000000D+01  .000000000000D+00 -.279396772385D-08  .000000000000D+00
      .529934400000D+07  .000000000000D+00
